{"type":"FeatureCollection","features":[{"type":"Feature","properties":{"provincia":"BARRANCA","departamento":"LIMA","zona":"NORTE_CHICO"},"geometry":{"type":"Polygon","coordinates":[[[-77.38557036160107,-10.707593728604433],[-77.40249273661703,-10.76797572866067],[-77.45815423666944,-10.809955103699703],[-77.4622207366733,-10.87006635375567],[-77.44429298665642,-10.916097603798569],[-77.52571098673312,-10.931980478813294],[-77.56138636176678,-10.87839785376334],[-77.59952711180276,-10.860028353746221],[-77.70151561189904,-10.886117353770366],[-77.70366411190109,-10.857728478743958],[-77.750183611945,-10.817740228706633],[-77.74403511193921,-10.794537103685037],[-77.81065623700212,-10.699894478596795],[-77.8862714870736,-10.611919978514722],[-77.83298923702316,-10.567483103473453],[-77.77137648696491,-10.571614603477421],[-77.77244336196587,-10.512478228422333],[-77.79617773698831,-10.483292853395128],[-77.76021161195428,-10.43022122834576],[-77.75704098695124,-10.344216853265666],[-77.69875173689618,-10.322104103245161],[-77.64920436184943,-10.34346747826511],[-77.61942723682132,-10.327825353250587],[-77.59937298680242,-10.38333397830229],[-77.68391998688222,-10.431385978346931],[-77.7367812369322,-10.56321210346964],[-77.64425973684482,-10.527409103436403],[-77.64073036184152,-10.596271728500533],[-77.57665036178108,-10.58374810348894],[-77.58637223679024,-10.646944853547794],[-77.5771744867816,-10.728570228623814],[-77.49495986170409,-10.7461026036402],[-77.38557036160107,-10.707593728604433]]]}},{"type":"Feature","properties":{"provincia":"HUARAL","departamento":"LIMA","zona":"NORTE_CHICO"},"geometry":{"type":"Polygon","coordinates":[[[-76.49121286076347,-11.089441353960218],[-76.51840236078887,-11.116078103985025],[-76.49207723576428,-11.189313979053235],[-76.47769611075086,-11.29352885415028],[-76.45702348573157,-11.334427729188377],[-76.48348211075624,-11.344419729197678],[-76.54607486081468,-11.316090979171287],[-76.59817673586333,-11.326581979181059],[-76.69457061095338,-11.429327104276734],[-76.76827911102227,-11.42044997926849],[-76.89225361113823,-11.492188604335263],[-76.85909011110718,-11.508337354350319],[-77.00489061124371,-11.613472604448216],[-77.05181061128766,-11.576134354413398],[-77.12388873635527,-11.655471104487281],[-77.19352348642064,-11.678322229508533],[-77.21603711144179,-11.638968729471861],[-77.28003136150194,-11.587447229423843],[-77.30475198652515,-11.512234354353811],[-77.38269336159851,-11.447179729293172],[-77.3255499865447,-11.388759979238813],[-77.3329877365517,-11.344188479197284],[-77.30349223652395,-11.27410160413205],[-77.24180661146598,-11.304335979160234],[-77.2254374864506,-11.34153910419487],[-77.1644994863934,-11.366226104217882],[-77.13127148636218,-11.298210979154566],[-77.07143823630607,-11.268425604126847],[-77.06002736129537,-11.195097604058551],[-77.08505111131883,-11.184608604048792],[-77.07545361130983,-11.103360603973133],[-77.02040998625823,-11.135209979002786],[-76.94267998618541,-11.07824997894977],[-76.87853711112538,-11.08276210395397],[-76.82575723607602,-11.103684353973467],[-76.76216298601656,-11.035665478910142],[-76.70486123596301,-11.055384853928507],[-76.57694923584353,-11.016527353892325],[-76.53130273580089,-11.036064478910513],[-76.49121286076347,-11.089441353960218]]]}},{"type":"Feature","properties":{"provincia":"HUAURA","departamento":"LIMA","zona":"NORTE_CHICO"},"geometry":{"type":"Polygon","coordinates":[[[-77.70151561189904,-10.886117353770366],[-77.59952711180276,-10.860028353746221],[-77.56138636176678,-10.87839785376334],[-77.52571098673312,-10.931980478813294],[-77.44429298665642,-10.916097603798569],[-77.4622207366733,-10.87006635375567],[-77.45815423666944,-10.809955103699703],[-77.40249273661703,-10.76797572866067],[-77.38557036160107,-10.707593728604433],[-77.39530998661024,-10.661539978561535],[-77.34470323656262,-10.607980478511678],[-77.29432823651528,-10.66039235356053],[-77.19722998642409,-10.686829853585198],[-77.12272298635416,-10.648956103549933],[-77.05509361129073,-10.691384103589481],[-77.01096648624939,-10.695993103593766],[-77.03483611127176,-10.732751978627977],[-77.14028911137063,-10.75610347864972],[-77.17662111140473,-10.778074228670176],[-77.15649411138585,-10.84924410373645],[-77.16803998639668,-10.918539978800963],[-77.19423011142125,-10.957504478837242],[-77.13883998636928,-11.011229978887306],[-77.07763023631186,-11.012459978888474],[-76.96890023620998,-10.86390997875015],[-76.88923998613541,-10.84412997873174],[-76.79860998605061,-10.919069978801554],[-76.74311998599875,-10.934329853815775],[-76.69509573595386,-10.879273478764487],[-76.65420686091566,-10.88198247876703],[-76.58821161085403,-10.84505072873263],[-76.56507661083242,-10.966178978845438],[-76.57694923584353,-11.016527353892325],[-76.70486123596301,-11.055384853928507],[-76.76216298601656,-11.035665478910142],[-76.82575723607602,-11.103684353973467],[-76.87853711112538,-11.08276210395397],[-76.94267998618541,-11.07824997894977],[-77.02040998625823,-11.135209979002786],[-77.07545361130983,-11.103360603973133],[-77.08505111131883,-11.184608604048792],[-77.06002736129537,-11.195097604058551],[-77.07143823630607,-11.268425604126847],[-77.13127148636218,-11.298210979154566],[-77.1644994863934,-11.366226104217882],[-77.2254374864506,-11.34153910419487],[-77.24180661146598,-11.304335979160234],[-77.30349223652395,-11.27410160413205],[-77.3329877365517,-11.344188479197284],[-77.3255499865447,-11.388759979238813],[-77.38269336159851,-11.447179729293172],[-77.49814261170724,-11.377154354227864],[-77.64292386184388,-11.304476604160046],[-77.64165423684267,-11.21450972907625],[-77.59234961179608,-11.182080104046113],[-77.6334159868348,-11.054507853927259],[-77.66174998686154,-11.012654353888266],[-77.65782811185781,-10.946505853826668],[-77.70151561189904,-10.886117353770366]]]}}]}